station_id,name,address,city,postal_code,latitude,longitude
166,OMV - Klagenfurt Völkermarkter Straße 272,Voelkermarkter Strasse 272,Klagenfurt,9020,46.62956,14.35681
166,OMV - Klagenfurt Völkermarkter Straße 272,Voelkermarkter Strasse 272,Klagenfurt,9020,46.62956,14.35681
171,OMV - Ansfelden Traunuferstraße 108,Traunuferstrasse 108,Ansfelden,4052,48.21607,14.27936
171,OMV - Ansfelden Traunuferstraße 108,Traunuferstrasse 108,Ansfelden,4052,48.21607,14.27936
172,OMV - Attnang-Puchheim Salzburger Straße 91,Salzburger Strasse 91,Attnang-Puchheim,4800,48.00541,13.70937
172,OMV - Attnang-Puchheim Salzburger Straße 91,Salzburger Strasse 91,Attnang-Puchheim,4800,48.00541,13.70937
175,avanti - Kufstein Schubertstraße 20,Schubertstrasse 20,Kufstein,6330,47.58636,12.16222
177,OMV - Wels Eisenfeldstraße 2,Eisenfeldstrasse 2,Wels,4600,48.16575,14.0391
177,OMV - Wels Eisenfeldstraße 2,Eisenfeldstrasse 2,Wels,4600,48.16575,14.0391
181,OMV - Schwarzach Salzburger Straße 52,Salzburger Strasse 52,Schwarzach,5620,47.32019,13.14384
187,avanti - Kirchdorf in Tirol Innsbrucker Straße 51,Innsbrucker Strasse 51,Kirchdorf in Tirol,6383,47.54417,12.44904
228,OMV - Gmunden Bahnhofstraße 42,Bahnhofstrasse 42,Gmunden,4810,47.92428,13.78782
228,OMV - Gmunden Bahnhofstraße 42,Bahnhofstrasse 42,Gmunden,4810,47.92428,13.78782
234,avanti - Wien Wagramer Straße 179,Wagramer Strasse 179,Wien,1210,48.25964,16.45031
257,OMV - Dobl (Kaiserwald) Autobahn A2 (Südautobahn) KM 190,Autobahn A2 (Suedautobahn) KM 190,Dobl (Kaiserwald),8143,46.95939,15.38155
257,OMV - Dobl (Kaiserwald) Autobahn A2 (Südautobahn) KM 190,Autobahn A2 (Suedautobahn) KM 190,Dobl (Kaiserwald),8143,46.95939,15.38155
259,OMV - Oberwart Grazer Straße 123,Grazer Strasse 123,Oberwart,7400,47.28297,16.18523
259,OMV - Oberwart Grazer Straße 123,Grazer Strasse 123,Oberwart,7400,47.28297,16.18523
276,OMV - Obertrum Salzburger Straße 2,Salzburger Strasse 2,Obertrum,5162,47.93554,13.08069
284,OMV - Linz Hafenstraße 8,Hafenstrasse 8,Linz,4020,48.31554,14.30166
284,OMV - Linz Hafenstraße 8,Hafenstrasse 8,Linz,4020,48.31554,14.30166
334,OMV - Wien Sterngasse 13,Sterngasse 13,Wien,1230,48.14891,16.33836
334,OMV - Wien Sterngasse 13,Sterngasse 13,Wien,1230,48.14891,16.33836
355,OMV - Villach Maria-Gailer-Straße 53,Maria-Gailer-Strasse 53,Villach,9500,46.60434,13.87092
355,OMV - Villach Maria-Gailer-Straße 53,Maria-Gailer-Strasse 53,Villach,9500,46.60434,13.87092
361,OMV - Lienz Tiroler Straße 10,Tiroler Strasse  10,Lienz,9900,46.83095,12.77553
374,OMV - Weiden am See Parz. Nr. 2164 17-18,Parz. Nr. 2164 17-18,Weiden am See,7100,47.9375,16.85532
374,OMV - Weiden am See Parz. Nr. 2164 17-18,Parz. Nr. 2164 17-18,Weiden am See,7100,47.9375,16.85532
391,OMV - Strasshof Hauptstraße 119,Hauptstrasse 119,Strasshof,2231,48.31458,16.6256
391,OMV - Strasshof Hauptstraße 119,Hauptstrasse 119,Strasshof,2231,48.31458,16.6256
410,OMV - Golling an der Salzach Autobahn Golling Ost 31,Autobahn Golling Ost 31,Golling an der Salzach,5440,47.58396,13.1575
410,OMV - Golling an der Salzach Autobahn Golling Ost 31,Autobahn Golling Ost 31,Golling an der Salzach,5440,47.58396,13.1575
435,OMV - Ried im Oberinntal Reschenstraße 299,Reschenstrasse 299,Ried im Oberinntal,6531,47.05741,10.65375
448,OMV - Feldkirchen 10. Oktober-Straße 23,10. Oktober-Strasse 23,Feldkirchen,9560,46.72299,14.09689
450,OMV - Wolfsberg Klagenfurter Straße 16,Klagenfurter Strasse 16,Wolfsberg,9400,46.82775,14.83911
450,OMV - Wolfsberg Klagenfurter Straße 16,Klagenfurter Strasse 16,Wolfsberg,9400,46.82775,14.83911
453,avanti - Alkoven Strass 16,Strass 16,Alkoven,4072,48.28792,14.07613
461,OMV - Asten An der Bundesstraße 1 ca.1KM,An der Bundesstrasse 1 ca.1KM,Asten,4481,48.22243,14.40833
461,OMV - Asten An der Bundesstraße 1 ca.1KM,An der Bundesstrasse 1 ca.1KM,Asten,4481,48.22243,14.40833
482,OMV - Stockerau Autobahn A 22,Autobahn A 22 ,Stockerau,2000,48.38086,16.20408
488,OMV - Graz Straßganger Straße 436,Strassganger Strasse 436,Graz,8054,47.03326,15.39896
488,OMV - Graz Straßganger Straße 436,Strassganger Strasse 436,Graz,8054,47.03326,15.39896
495,OMV - Braunau Salzburger Straße 99,Salzburger Strasse 99,Braunau,5280,48.24673,13.0403
495,OMV - Braunau Salzburger Straße 99,Salzburger Strasse 99,Braunau,5280,48.24673,13.0403
1109,JVG JOHANNA - GARAGE GmbH,Johannagasse 28,Wien,1050,48.1854701,16.3473292
1114,Wälderhaus,Pelzrain,Bezau,6870,47.37926,9.894218
1117,Wälderhaus,Gfäll 134,Langenegg,6941,47.472489,9.900355
1135,NNB BRUNNENTANKSTELLE,Brunnengasse 4,WIEN,1160,48.20462,16.334813
1144,Diskonttankstelle No Name,Neugasse 101,Gleisdorf,8200,47.0987139,15.7129088
2056,Diskonttankstelle,Linzer Straße 29,Königswiesen,4280,48.3942687,14.8289891
2070,freie Tankstelle,Hirschegg 50,Hirschegg,8584,47.0201138,14.9572875
3059,TURMÖL,Bundesstraße 50,Piringsdorf,7373,47.4482398,16.4176861
3071,Gutmann ENI Tankstelle,Fürstenweg 87,Innsbruck,6020,47.2622324066577,11.3727536634174
3071,Gutmann ENI Tankstelle,Fürstenweg 87,Innsbruck,6020,47.2622324066577,11.3727536634174
3080,Gutmann ENI Tankstelle,Sellrainer Straße 2,Kematen,6175,47.2623643,11.2637622
3080,Gutmann ENI Tankstelle,Sellrainer Straße 2,Kematen,6175,47.2623643,11.2637622
3081,Gutmann ENI Tankstelle,Bundesstraße 14,Mils,6068,47.2813456,11.5340622
3081,Gutmann ENI Tankstelle,Bundesstraße 14,Mils,6068,47.2813456,11.5340622
3085,Gutmann ENI Tankstelle,Ambergstraße 40,Ötztal ,6430,47.2316892,10.8531181
3085,Gutmann ENI Tankstelle,Ambergstraße 40,Ötztal ,6430,47.2316892,10.8531181
3088,Gutmann ENI Tankstelle,Gewerbestraße 2,Prutz,6522,47.0914553,10.6671344
3088,Gutmann ENI Tankstelle,Gewerbestraße 2,Prutz,6522,47.0914553,10.6671344
3093,Gutmann ENI Tankstelle,Industriestraße 12,Vomp,6134,47.3510889,11.7004781
3093,Gutmann ENI Tankstelle,Industriestraße 12,Vomp,6134,47.3510889,11.7004781
4050,Gutmann ENI Tankstelle+TANKAUTOMAT,Bahnhofstraße 11,Oberndorf,6372,47.4964984,12.3882226
4050,Gutmann ENI Tankstelle+TANKAUTOMAT,Bahnhofstraße 11,Oberndorf,6372,47.4964984,12.3882226
4051,Gutmann ENI Tankstelle,Gutenbergstraße 6,Schwarzach,6858,47.440047,9.756718
4051,Gutmann ENI Tankstelle,Gutenbergstraße 6,Schwarzach,6858,47.440047,9.756718
4073,Freie Tankstelle,Dr. Hans Bachmannstrasse 51a,Kundl,6250,47.4733396,11.9790487
4073,Freie Tankstelle,Dr. Hans Bachmannstrasse 51a,Kundl,6250,47.4733396,11.9790487
4098,Turmöl Quick,Innerrotte 50,St. Jakob,9963,46.9151971,12.3338164
4158,Disk,Hauptstraße 18,Zams,6511,47.1541793,10.5844558
4158,Disk,Hauptstraße 18,Zams,6511,47.1541793,10.5844558
4196,RHD Richard Hofer Diskont,Wörther Strasse 73,Wörth,2640,47.6737717,15.969825
4302,Stöckl,Mariasdorf 51,Mariasdorf,7433,47.363316,16.2407267
4305,Tankstelle Röck,Tankstelle Röck RADOCHEN 61,UNTERPURKLA,8484,46.7640327,15.9011284
4311,TURMÖL powered by boesch energy,Hernalser Hauptstrasse 173-175,Wien,1170,48.2231967,16.3157915
4313,TURMÖL powered by boesch energy,Baldiagasse 14a,Wien,1160,48.215105,16.3244884
4330,Hausberger Nahversorgung,Hiesbach 95,Allhartsberg,3365,48.028834,14.838248
4338,Diskont Tankstelle,"Franz-Brötzner-Strasse 3 (""Hofer-Parkplatz"")",Wals,5071,47.7931146,12.9851652
4340,Diskont Tankstelle,"Bundesstrasse 23 (""Hofer-Parkplatz"")",St. Johann,5600,47.3569941,13.1971638
4342,Diskont Tankstelle,"Hermann-Gmeiner-Strasse 14 (""Hofer-Parkplatz"")",Nussdorf,9990,46.8275812,12.8150528
4343,Diskont Tankstelle,"St. Anna Weg 23  (""Hofer-Parkplatz"")",Rankweil,6830,47.2726837,9.6079338
4344,Diskont Tankstelle,"Gmeinstrasse 4 (""Hofer-Parkplatz"")",Graz,8055,47.0298178,15.4381637
4348,eni,Floragasse 7a,Wien,1040,48.1943861,16.3680232
4359,Tanke Blaguss,Wiener Straße 26,Oberpullendorf,7350,47.5086025,16.5037784
4368,O-Tank,Haupstrasse 23,Sigless,7032,47.7744266,16.3943503
4405,Diskont Tankstelle,"Ossiacher see strasse (""Hofer""-Parkplatz)",Treffen,9521,46.652264,13.874552
5093,Turmöl Tankstelle,Margaretenstrasse 28,Wien,1040,48.1962250998788,16.3648216561744
6066,ENI AUSTRIA,wilfersdorf 104,gleisdorf,8200,47.1051531,15.6766397
6070,TANKEnergie Ringgarage,Untere Viaduktgasse 47-49,Wien,1030,48.2066605,16.3873229
6074,Turmöl-Tankstelle beim Interspar,Industriezeile 78,Linz,4020,48.3004302,14.3206244
6083,Turmöl Quick,Währinger Gürtel 116,Wien,1090,48.2266238,16.3504673
6174,TROPPER-GRINSCHGL - KFZ-Prüffstelle,Kronnersdorf 16,Straden,8345,46.8054956,15.8500188
6176,FILLUP 24 h - 5500,Molkereistraße 10,Bischofshofen,5500,47.4132863025724,13.2183000160912
6176,FILLUP 24 h - 5500,Molkereistraße 10,Bischofshofen,5500,47.4132863025724,13.2183000160912
6221,Lagerhaus-Genol,Weinberggasse 1,Podersdorf,7141,47.8565454,16.8368875
6225,Lagerhaus-Genol,Andauerstraße 1,Halbturn,7131,47.8702538,16.9760281
6232,Lagerhaus-Genol,Bahnstraße 115,Wallern,7151,47.7351682,16.9296436
6325,Walter,Unterauersbach 8,Unterauersbach,8342,46.86577,15.77547
6397,GENOL - Lagerhaus,Bahnstraße 21,Pottenstein,2563,47.963018,16.0883929
6407,Freie Tankstelle Nockenstein,Wolfgangseestraße 35,Koppl,5023,47.8203145,13.1112882
6412,GENOL - Lagerhaus,Sägemühle 2,Krumbach,2851,47.5032608,16.2044289
6441,Torrefina Gmbh.,Schottenfeldgasse 94,Wien,1070,48.2071479,16.343487
6444,GENOL - Lagerhaus,Wienerstraße 95a,Wr. Neustadt,2700,47.8296057,16.2439872
6453,GENOL - Lagerhaus,Lagerhausstraße 1,Thomasberg,2842,47.6028673,16.1186639
6475,KFZ SIMON  -  Pinkafeld,Wienerstraße 72,Pinkafeld,7423,47.381353,16.120446
6607,Diesel-Klösch,Mostbauerstrasse 3,Deutschlandsberg,8530,46.8271642,15.2361085
6612,ENI,Dorf 23d,Wiesing,6210,47.4034807,11.8032194
6612,ENI,Dorf 23d,Wiesing,6210,47.4034807,11.8032194
6637,Eni Service Station,Mattseer Landesstr. 4,Elixhausen,5161,47.8596157,13.059111
6673,Beiskammer,Kirchham 18,Kirchham,4656,47.9718766,13.8992497
6681,Genol LGH Grein_(-TKK Abschlag),Ufer 14,Grein,4360,48.2220734,14.8507314
6684,Genol LGH Waldhausen_(-TKK Abschlag),Markt 94,Waldhausen,4391,48.2722,14.9508179
7576,Lagerhaus,Lastenstrasse 2,Friesach,9360,46.9534585,14.4097946
7586,Landestankstelle Rdf. Partner Luisser,Grazer Straße 34,Rudersdorf,7571,47.055172,16.1089281
7620,Loacker Tours GmbH (Diesel + Super95),Bundesstraße 17,Koblach,6842,47.323657,9.6285154
7644,Gruber Diesel,Industriepark 1,Traboch - Timmersdorf,8772,47.3724078,14.9887659
7645,Plose A Oil,Innstrasse 13,Fritzens,6122,47.3012592,11.5923631
7685,Diskonttankstelle Jandl,Dassanowskyweg 12,Wien,1220,48.2660299,16.4620288
7690,Amort Tankstelle,Zugspitzstraße 19,Ehrwald,6632,47.4104444,10.9156661
7694,BP,Bundesstraße 2,St. Johann,5600,47.3343734,13.189367
7694,BP,Bundesstraße 2,St. Johann,5600,47.3343734,13.189367
7706,LMEnergy Express,Salzachtalbundesstraße 111,Anif,5081,47.7313262,13.0641858
7724,BP,Reichenauer Straße 149,Innsbruck,6020,47.2738154,11.4281608
7724,BP,Reichenauer Straße 149,Innsbruck,6020,47.2738154,11.4281608
7727,Geist Transporte,Widum 235,Sulzberg,6934,47.5205385,9.9094319
7730,Geist Transporte,Fahl 125,Sulzberg,6934,47.514998,9.86411
7734,BP,Montafonerstraße 29,Bludenz,6700,47.140981,9.833898
7738,GENOL-LH EFERDING-OÖ. MITTE eGen,BAHNHOFSTRASSE 51-55,EFERDING,4070,48.3021109,14.0143393
7752,Magistrat Stadt Villach,St. Johanner Straße 20,Villach,9500,46.6113273,13.8330066
7768,KK Kaindl AVIA,Baumgartenberg 40,Baumgartenberg,4342,48.2090333,14.7462471
7772,GENOL-LH EFERDING-OÖ. MITTE eGen,ST. THOMAS 34,ST. THOMAS BEI WAIZENKIRCHEN,4732,48.284471,13.880056
7806,Eibl Werner,Gaißau 155,Krispl,5425,47.7120404,13.194849
7812,Vivod GmbH,Laaberstrasse 1,Breitenfurt,2384,48.1381917,16.2038779
7818,Posauner Petrol,Klamm 14A,St. Veit im Pongau,5621,47.2976853,13.081528
7842,Diesel,Lagerhaus Rothenthurn 13,Rothenthurn,9701,46.7606041,13.5803153
7843,eni,Markt Hartmannsdorf 297,Markt Hartmannsdorf,8311,47.05449,15.84083
7843,eni,Markt Hartmannsdorf 297,Markt Hartmannsdorf,8311,47.05449,15.84083
7847,Rumpold,Hauptstrasse 171,Vordernberg,8794,47.463088,14.991444
27321,BP,Donaufelderstr.91 ,Wien,1210,48.2532979,16.4184148
27322,BP,Erdbergstr 184,Wien,1030,48.1931587,16.4103596
27332,Shell,Güssingerstraße 1,Großpetersdorf,7503,47.2301499,16.3225811
27336,Rickl Mühle,Raggendorfer Straße 1,Groß Schweinbarth,2221,48.4018614,16.6461741
27339,Lagerhaus-Tankstelle 24 h mit Waschportal,Neumarkterstrasse 1,Strasswalchen,5204,47.9568802,13.2352561
27339,Lagerhaus-Tankstelle 24 h mit Waschportal,Neumarkterstrasse 1,Strasswalchen,5204,47.9568802,13.2352561
27340,Shell Tankstelle,Wiener Bundesstrasse 153,Traun,4050,48.234185,14.23294
27340,Shell Tankstelle,Wiener Bundesstrasse 153,Traun,4050,48.234185,14.23294
27348,IQ Tankstelle,Gadnergasse 12,Wien,1110,48.164827,16.410579
27348,IQ Tankstelle,Gadnergasse 12,Wien,1110,48.164827,16.410579
27349,Lagerhaus-Tankstelle 24 h,Michaelbeuern 73,Michaelbeuern,5152,48.0188741,13.0298194
30200,Freie Tankstelle,Wimbergeramt 49,Dorfstetten,4392,48.3289445,14.9800423
30231,TAC,Taborstraße 102-108 ,Wien,1200,48.2270659,16.3870746
30238,Lohberger,Ödenburger Straße 14 ,Wien,1210,48.27539596984909,16.397716999053955
30243,BP,Lustenauerstrasse 92,Dornbirn,6850,47.41248,9.7145355
30246,BP,Handelskai 90,Wien,1200,48.2430922,16.3843336
33290,Aspöck - Freie Tankstelle,Obeltsham 29,Gaspoltshofen,4673,48.1351055,13.7281924
33291,Diesel-Benzin-Diskont Groiss ,Josef-Jessernigg-Straße 3,Stockerau,2000,48.387907,16.232125
33319,Shell,Fischanger 161,Langen,6932,47.5155039,9.8437537
33340,Shell Tankstelle,Naarner Strasse 73,Perg,4320,48.239517,14.626021
33340,Shell Tankstelle,Naarner Strasse 73,Perg,4320,48.239517,14.626021
33343,Eni Tankstelle,Bundesstrasse 130,Bisamberg,2102,48.332867,16.345122
33343,Eni Tankstelle,Bundesstrasse 130,Bisamberg,2102,48.332867,16.345122
33348,Shell Tankstelle,Siemensstrasse 105b,Wien,1210,48.266989,16.428849
33348,Shell Tankstelle,Siemensstrasse 105b,Wien,1210,48.266989,16.428849
33352,Shell Tankstelle,Umfahrung-Sued 1,Rohrbach,4150,48.565037,13.985382
33352,Shell Tankstelle,Umfahrung-Sued 1,Rohrbach,4150,48.565037,13.985382
33353,Shell Tankstelle,Linzer Strasse 44,Freistadt,4240,48.502303,14.501686
33353,Shell Tankstelle,Linzer Strasse 44,Freistadt,4240,48.502303,14.501686
33361,Shell Tankstelle,Hanuschstrasse 128,Linz,4020,48.271603,14.294458
33361,Shell Tankstelle,Hanuschstrasse 128,Linz,4020,48.271603,14.294458
33363,Shell Tankstelle,Reichsstrasse 14,Poechlarn,3380,48.198073,15.222101
33363,Shell Tankstelle,Reichsstrasse 14,Poechlarn,3380,48.198073,15.222101
33364,Eni Schwanenstadt,Salzburgerstrasse 41,Schwanenstadt,4690,48.048051,13.761766
33364,Eni Schwanenstadt,Salzburgerstrasse 41,Schwanenstadt,4690,48.048051,13.761766
33418,SOCAR Feldkirchen,Doktor-Arthur-Lemisch-Straße 7,Feldkirchen,9560,46.726235,14.089773
33426,ENI Tankstelle,Lanzendorfer Strasse GST 471/1,Achau,2481,48.0907,16.4113
33426,ENI Tankstelle,Lanzendorfer Strasse GST 471/1,Achau,2481,48.0907,16.4113
33436,Hirschmugl,Deutsch Goritz 78,Deutsch Goritz,8483,46.749278,15.831924
33461,Diesel,"Unser Lagerhaus Fieberbrunn, Rosenegg 31",Fieberbrunn,6391,47.489121,12.527916
33463,Ford-Levak,Halbenrain 13,Halbenrain,8492,46.7226069,15.9474719
33470,Shell,Faschinastraße 198,Thüringerberg,6721,47.2157535,9.7936756
33472,Stadtwerke Leoben,Kerpelystraße 34,Leoben,8700,47.3746958,15.0823166
33472,Stadtwerke Leoben,Kerpelystraße 34,Leoben,8700,47.3746958,15.0823166
33475,Shell Liefering,Muenchner Bundesstrasse 137,Salzburg,5020,47.833221,12.998107
33475,Shell Liefering,Muenchner Bundesstrasse 137,Salzburg,5020,47.833221,12.998107
33478,Böhler`s Tankstelle,Reicharten 617,Langen bei Bregenz,6932,47.505693,9.822679
33480,Paulischin, Unternbergweg 1,Puchberg,2734,47.7917642,15.8960945
33481,Paulischin , Puchbergerstraße 257,Weikersdorf,2722,47.806022,16.180545
33482,Paulischin, Süddruckgasse 23,Tribuswinkel,2512,47.9829228,16.2859752
33562,Schaumberger GesmbH,Froschau 10,Freistadt,4240,48.5140105,14.5043854
33596,AVIA ,Keltenstraße 2,St. Pölten-Ratzersdorf,3100,48.2279934,15.6768304
33596,AVIA ,Keltenstraße 2,St. Pölten-Ratzersdorf,3100,48.2279934,15.6768304
33598,AVIA,Franz Eigl-Str. 7,Zwettl,3910,48.6028473,15.1854858
33598,AVIA,Franz Eigl-Str. 7,Zwettl,3910,48.6028473,15.1854858
33599,AVIA,Fachmarktzentrum 1,Siegendorf,7011,47.7735234,16.529095
33599,AVIA,Fachmarktzentrum 1,Siegendorf,7011,47.7735234,16.529095
33600,AVIA,Prof.Krejci-Graf-Str.2,Gmünd,3950,48.7608669,14.9905661
33600,AVIA,Prof.Krejci-Graf-Str.2,Gmünd,3950,48.7608669,14.9905661
33609,AVIA,Gewerbeparkstraße 1,Krems,3500,48.4052349,15.6549839
33609,AVIA,Gewerbeparkstraße 1,Krems,3500,48.4052349,15.6549839
33629,Gusenbauer - Ihr starker Partner,Hauptstraße 32,Mönchdorf,4281,48.3606782,14.7918203
33708,AVIA XPress (unser Service: Luft und Wasser),Hauptstraße 25,Neubau,2125,48.4985214,16.5169696
33715,AVIA,Schlitters 27c,Schlitters,6262,47.3811223,11.8341075
33715,AVIA,Schlitters 27c,Schlitters,6262,47.3811223,11.8341075
33727,AVIA,Friedrich-Thurner-Straße 21,Ried im Innkreis,4910,48.212154,13.482703
33727,AVIA,Friedrich-Thurner-Straße 21,Ried im Innkreis,4910,48.212154,13.482703
33950,IQ-Tankstelle,Dorfwerfen 50,Pfarrwerfen,5452,47.4576791,13.2068137
33971, BP Tankstelle Zyka Roland,Stubaitalstrasse 81,Neustift,6167,47.111457,11.3096291
33986,Shell,Austrasse 21,St. Michael,5582,47.0948959,13.6359162
34000,Urban Garage,Antonigasse 81,Wien,1170,48.2246253,16.3326865
34002,Thrainer,Audorfer Straße 41,Niederndorf,6342,47.6488703,12.1965438
34002,Thrainer,Audorfer Straße 41,Niederndorf,6342,47.6488703,12.1965438
34016,Baertl GmbH,Stuwerstrasse 41,Wien,1020,48.219051079508,16.4058665626915
34026,leodiskonttankstelle GmbH,Seidengasse 12,Wien,1070,48.2004272,16.3445982
34031,Greiner Einkaufsmarkt Eichfeld,Eichfeld 64,Mureck,8480,46.7256184,15.7721281
34032,Autohof Huter GmbH,Stegen 7,Vils,6682,47.5502075,10.6575315
34046,Tankstelle Kolbitsch,10.Oktoberstrasse 15,Steinfeld,9754,46.7585483,13.251503
34320,freie Tankstelle,Untere Hauptstr. 153,Riedlingsdorf,7422,47.3371468,16.1450365
34340,Gbr. Trippl Transporte GmbH & Co KG,Mariazellerstrasse 89,Kapfenberg,8605,47.4524949,15.266624
34351,Rosenauer IQ Tankstelle,Schallerbacherstrasse 63,Wallern,4702,48.2289088,13.9365309
34412,MBH Diskonttankstelle GmbH bei Kundenkarte abzgl. Rabatt                                     ,Trautmannsdorf  245,Bad Gleichenberg,8344,46.8683453,15.8894748
34419,FRUHMANN DISKONT,Siebing 20,Allerheiligen,8412,46.9155869,15.5832111
34437,Gelbmann GmbH / freie Tankstelle / 24 Std. SB-Tankstelle,kindergartengasse 14,andau,7163,47.7762135,17.0346131
34450,Lagerhaus Tankstelle Lienz,Kärntnerstraße 110,Lienz,9900,46.8304105,12.7911009
34478,Eni / Agip,Erdbergstrasse 189,Wien,1030,48.186401,16.4233279
34479,Turmöl Tankstelle Lang,Dorf 343,Olbendorf,7534,47.1880973,16.2033658
34480,DICKINGER Agrarhandel GmbH,Stampfstraße 3,Vorchdorf,4655,48.0051382,13.9188821
34493,Diskont,Markt 6,Windhaag bei Freistadt,4263,48.588616,14.561648
34495,Diskont Oberndorfer,Jebenstein 3,Holzhausen,4615,48.2195481,14.1105648
34499,Diskont Pöltl,Hofstatt 21,Unterpetersdorf,7312,47.5907015,16.579503
34504,Steindorfer Mail,Mail Süd 1-5,Sankt Veit an der Glan,9300,46.800983,14.4024476
34507,Land lebt auf,Sportplatzstraße 1,St. Georgen / Salzburg,5113,47.974007,12.893658
34521,www.voegel-trans.at,Säge 156,Doren,6933,47.49052893,9.85336304
34522,Turmöl SB Tankstelle SHALABI Asim ,Waldeggstraße 44,Linz ,4020,48.288119,14.287634
34528,Karl Bors GmbH,Ober Hauptstr. 63,Tadten,7162,47.7654592,16.9832483
34545,Freie Tankstelle,Hasnerstraße 128,Wien ,1160,48.2116586,16.3102334
34547,Moser Tankstelle Feldkirchen,Oberglan-Gewerbestr. 1,Feldkirchen,9560,46.694667,14.125671
34558,Grübler Thomas Dieseltankstelle,Böcksteiner Bundesstraße 15,Bad Gastein,5640,47.1054555,13.1342715
34561,Johannes Pferschinger,St.Urbanstraße 2,Fels/Wagram,3481,48.4383789,15.8176601
34570,Lagerhaus,10. Oktoberstrasse 9,Grafenstein,9131,46.6218093,14.4489482
34587,Tankstelle Pernsteiner - Tankautomat mit Bankomat,Hauptstraße 9,Kirchberg ob der Donau,4131,48.444348,13.938993
34588,Shell,Kremserstraße 2-4,Kirchberg am Wagram,3470,48.4308585,15.9019522
34591,SB-Tankstelle,Diesendorf 15,St. Leonhard,3243,48.0925635,15.2496315
34593,LAGERHAUS   Hopfgarten - Wörgl und Umgebung reg.Gen.m.b.H.,Bahnhofstr. 7,Hopfgarten,6361,47.4526716,12.1517289
34596,Schildecker-DISKONT,Industriegelände Objekt 2,Pischelsdorf,3435,48.33325905,15.94180584
34598,Diskonttankstelle Schöllhammer,Bahnhofstraße 92,Stadt Haag,3350,48.096018,14.5880669
34706,Autohaus Föttinger GmbH,Seefeld 9,Steinbach am Attersee,4853,47.8407909,13.5474485
34728,"Jedinger, Freie Tankstelle",Frei 3,Geboltskirchen,4682,48.1537941,13.6345045
34735,Vinzenz Duftner KG,Zentrum 18,Kramsach,6233,47.4480360630883,11.8837798082177
34737,PITTL - Diesel Hi-Tech,Römerstrasse 229,Lans,6072,47.227809,11.429901
34739,Kuss Autodienst,Christophorusweg 1,Guttaring,9334,46.8799972,14.505802
34763,Diskonttankstelle Leonhartsberger,Schloßberg 34,Waldhausen,4391,48.2777412,14.9560838
34764,Huber ,Zellbergeben 16,Zellber,6277,47.2352316,11.8802754
34787,Shell,Am Stein 388,Au,6883,47.3279328,9.9756882
34809,IQ-Tankstelle Seiwald,Mauthen 264,Kötschach-Mauthen,9640,46.6656107,12.9976327
34814,,Schweizerstraße 45,Altach,6844,47.3528442,9.6348561
34814,,Schweizerstraße 45,Altach,6844,47.3528442,9.6348561
34817,Lagerhaus Tankstelle,Kötschach 153,Kötschach,9640,46.6721177,13.0032407
34946,Trötzmüller Garage,Pouthongasse 15 - 17,Wien,1150,48.1992287,16.3298807
34988,Reinpold Tankstelle Scharnitz,Innsbruckerstraße 464,Scharnitz,6108,47.3879114,11.2609853
35026,Mössmer Transporte,Gewerbestraße 1,Volders,6111,47.2899507,11.5734834
35066,Mitterecker GmbH,Andorfer Strasse 13,Zell an der Pram,4755,48.3191684,13.62668
35466,,Payerstetten 6,Leiben,3652,48.2496835,15.2480109
35567,BP,Franz Josefskai/Morzinpl ,Wien,1010,48.2123537,16.3743119
35574,BP,Nonntaler Hauptstrasse 65 ,Salzburg,5020,47.7844906,13.0525391
35578,BP,Lustenauer Strasse 112a ,Hohenems,6845,47.373695,9.677582
35579,BP,Hadikgasse/Kefergasse ,Wien,1140,48.1927168,16.2776905
35580,BP,Einzingergasse 2 ,Wien,1210,48.28254695,16.3799518
35582,BP,Geiselbergstr.47/Hauffg.35 ,Wien,1110,48.1748413,16.408093
35616,BP,Gewerbeparkstr.On1 Gew.Park Stadlau ,Wien,1220,48.247683,16.466253
35628,BP,Bruennerstrasse 186 ,Wien,1210,48.2835514,16.4130911
35631,BP,Linke Wienzeile 90-92 ,Wien,1060,48.1947585,16.3537622
35636,BP,Kaiser Ebersdorferstr.248-250 ,Wien,1110,48.159913,16.457723
35666,BP,St Johannerstrasse ,Kitzbuehel,6370,47.459666,12.386913
35676,BP,Franzosengraben ,Wien,1030,48.1867771,16.4130517
35682,BP,Maroltingergasse 5 ,Wien,1140,48.203324,16.3028796
35686,BP,Wienerbergstr. 29 ,Wien,1120,48.170951,16.33682
35687,BP,Erdbergerlaende 30 ,Wien,1030,48.201209,16.403575
35692,BP,Zinnergasse 4 ,Wien,1110,48.1612431,16.4713858
35696,BP,Gablenzgasse 72 ,Wien,1160,48.206071,16.321692
35697,BP,Hietzinger Kai 133-135 ,Wien,1130,48.1915759,16.2803217
35700,BP,Linzer Str. 135-137 ,Wien,1140,48.1933363,16.3017905
35714,BP,Heiligenstaedterstr.77 ,Wien,1190,48.2438482,16.3613545
35717,BP,Gaudenzdorfer Guertel 77 ,Wien,1120,48.1875841,16.3394844
35721,BP,Dresdnerstrasse 8 ,Wien,1200,48.2408605,16.3748223
35725,BP,Laxenburgerstrasse 2a ,Wien,1100,48.183485,16.373405
35726,BP,Am Fasangarten 9 ,Wien,1120,48.170747,16.305561
35729,BP,Triesterstrasse 153 ,Wien,1100,48.15669974,16.34239786
35734,BP,Pfannhausstr. 14 ,Hall In Tirol,6060,47.279184,11.501397
35736,BP,Stiegstrasse 63 ,Rankweil,6830,47.2796507,9.6496174
35743,BP,Hernalser Hauptstr.32-34 ,Wien,1170,48.2173667,16.3382721
35750,BP,Handelskai 276-280 ,Wien,1020,48.2165742,16.4171484
35754,BP,Krottenbachstr. 17 ,Wien,1190,48.2403021,16.3418194
35755,BP,Triesterstrasse 104 ,Wien,1100,48.15715224,16.34123557
35758,BP,Triesterstrasse 68 ,Wien,1100,48.16565603,16.34673579
35762,BP,Margaretenguertel 43-45 ,Wien,1050,48.1796472,16.3517548
35768,BP,Altmannsdorferstr.117 ,Wien,1120,48.1609065,16.3184664
35769,BP,Erzherzog Karlstr. 253 ,Wien,1220,48.2204444,16.48015387
35774,BP,Altmannsdorferstr.94 ,Wien,1120,48.1623607,16.3172305
35780,BP,Arsenalstrasse 5b ,Wien,1030,48.1776167,16.3929526
36106,ENI Rüf,Bersbuch 401,Andelsbuch,6866,47.3979731,9.853856
36268,OMV - Laakirchen Reiterholz 3,Reiterholz 3,Laakirchen,4663,48.00466,13.85405
36271,avanti - Wien Simmeringer Hauptstraße 5,Simmeringer Hauptstrasse 5,Wien,1110,48.18388,16.4059
36806,Koidl Discounttankstelle,Gewerbering West 5,Mittersill,5730,47.2778885,12.4536911
36946,Landkauf Bund,Wieden 35,Straden,8345,46.8085675,15.8704039
37006,,Industriestraße 17,Feldkirchen,9560,46.7215632,14.1021638
37470,Deutsch-Griffen,Göschelsberg 17,Deutsch-Griffen,9572,46.8493966,14.0861215
38009,Landesprodukte Scheiber,Jakling 6,St. Andrä,9433,46.7585275,14.8463902
38026,avanti - Wien Julius Ficker Straße 77,Julius Ficker Strasse 77,Wien,1210,48.26672,16.44859
38186,DISKONT Grausgruber,Starhemberg 15,Haag/Hausruck,4680,48.189051,13.642724
38866,AVIA Xpress (Automaten-Tankstelle),Am Müllerberg 23,Bad Schallerbach,4701,48.2226367,13.9148443
40106,Egger Wolfgang Internationale Transporte,Achenkirch 205,Achenkirch,6215,47.5160681,11.7083395
40126,Palfner Tankstelle,Bundesstraße 31,St. Johann,5600,47.3583594,13.1998823
40406, LMEnergy Express,Bundesstraße 2,St. Johann,5600,47.3343734,13.189367
40426,SCHWÄRZLER,Zeihenbühl 422,Lingenau,6951,47.4491533,9.9048504
40486,Eurowag,Kammer 44,Reichersberg,4981,48.3108247,13.4202842
40786,Diskont Diesel,Hainfeld 68,Ilz,8262,47.08102,15.9682
40787,"Frey, Diesel",Tobaj 48,Tobaj,7540,47.08552,16.3084
40926,Disk TANKAUTOMAT,Seblas 33,Matrei in Osttirol,9971,46.9898422,12.544411
41188,Diskont Tankstelle,"Neue Landstraße 74 (""Hofer-Parkplatz"")",Vorchdorf,4655,48.008358,13.920214
41286,Maroltinger Tankstelle, Maroltingergasse 66,Wien,1160,48.2102455,16.3058551
41826,Turmöl Quick,Schlossallee 2,Wien,1140,48.1893108,16.314299
41886,OMV - Lienz Iseltaler Straße 30,Iseltaler Strasse 30,Lienz,9900,46.83172,12.75363
42228,Johann Meusburger GmbH,Zeihenbühl 396,Lingenau,6951,47.4491221,9.90622
42386,"PINK - so pink, so clever",Schmiedstraße 29,Eferding,4070,48.3081944,14.0209109
42526,OMV - Kitzbühel St.Johanner Straße 15a,St.Johanner Strasse 15a,Kitzbuehel,6370,47.45609,12.38639
42646,avanti - Strass im Zillertal Bundesstraße 107,Bundesstrasse 107,Strass im Zillertal,6261,47.39793,11.81625
42886,Tanke Blaguss,Industriestraße,Eisenstadt,7000,47.8328353,16.5336044
43426,JP MENNEL,Hof 331,Lingenau,6951,47.4499378,9.9233926
43486,Wildenhofer Diesel Tankstelle,Gniglerstraße 5-7,Salzburg,5020,47.8157985,13.0497956
44066,Unser Lagerhaus,Gewerbepark 2,Pfaffenhofen,6405,47.300377,11.072502
44306,AVIA, Jeding 12,GASPOLTSHOFEN,4673,48.139459,13.732438
44686,avanti - Pinkafeld Wiener Straße 8,Wiener Strasse 8,Pinkafeld,7423,47.3744,16.12554
85913,TURMTANKSTELLE,Irrsdorfer Bachstraße Nr. 47,Straßwalchen,5204,47.967945,13.276355
101593,OMV - Sankt Johann im Pongau Wagrainer Straße 11,Wagrainer Strasse 11,Sankt Johann im Pongau,5600,47.34862,13.20651
108726,Wema  GmbH,Zeihenbühl 435,Lingenau,6951,47.4495768,9.9046295
182629,ENI AUSTRIA,Altenmarkt Nr.81,Altenmarkt bei St.Gallen,8934,47.7193299,14.6540434
208629,,Willersdorferstrasse 67,St. Radegund bei Graz,8061,47.1918522,15.5028483
209826,Rumpold,Mettersdorf am Saßbach 59,Mettersdorf,8092,46.8057563,15.7113904
237857,SB-Tankstelle Schmied im Wald,Gschaid 8,Natternbach,4723,48.4039189,13.6922177
238026,BP,Johann-Herbst-Straße 15,Glasenbach,5061,47.7696131,13.0854539
247819,eni,Feldstrasse 44,Brunn/Geb.,2345,48.122997,16.293216
247819,eni,Feldstrasse 44,Brunn/Geb.,2345,48.122997,16.293216
247846,eni,Lustenauerstrasse 52,Dornbirn,6850,47.4104,9.72079
247876,eni24,Hauptstrasse 21,St. Veit a. d. Gölsen,3161,48.04296,15.672147
247896,eni,Handelskai 388a,Wien,1020,48.2032,16.4358
247897,eni,Oberzellergasse 2a,Wien,1030,48.193838,16.396971
247903,eni,Raxstr./Windtenstrasse vis a vis 31,Wien,1100,48.1676,16.3551
247905,eni24,Felberstraße vis a vis 102,Wien,1150,48.193432,16.321006
247907,eni,Krottenbachstrasse 32-34,Wien,1190,48.2407,16.3393
247915,eni,Innsbruckerstrasse 29,Brixlegg,6230,47.43262,11.87891
247915,eni,Innsbruckerstrasse 29,Brixlegg,6230,47.43262,11.87891
247921,eni A 12 Inntalautobahn,An der Au 1,Mils bei Imst,6493,47.213166,10.696501
247923,eni,Zeller Bundesstrasse 1a,Saalfelden,5760,47.427965,12.842227
247923,eni,Zeller Bundesstrasse 1a,Saalfelden,5760,47.427965,12.842227
247928,eni,Brennerautobahn West Berg,Matrei,6143,47.13996,11.44809
247935,eni,Schallmooser Hauptstrasse 54,Salzburg,5020,47.807711,13.062374
247935,eni,Schallmooser Hauptstrasse 54,Salzburg,5020,47.807711,13.062374
247939,eni,Urstein Nord 15,Puch bei Hallein,5412,47.732187,13.086187
247939,eni,Urstein Nord 15,Puch bei Hallein,5412,47.732187,13.086187
247944,eni,Langgasse 118a,Rankweil,6830,47.27182,9.61785
247944,eni,Langgasse 118a,Rankweil,6830,47.27182,9.61785
247946,eni,Schwefel 70a,Dornbirn,6850,47.42974,9.73995
247946,eni,Schwefel 70a,Dornbirn,6850,47.42974,9.73995
247947,eni,Rheinstrasse 20,Bregenz-Hard,6971,47.488611,9.702186
247947,eni,Rheinstrasse 20,Bregenz-Hard,6971,47.488611,9.702186
247965,eni,Kärntnerstrasse 84,Lienz,9900,46.83117595,12.78306752
247970,eni,Huttengasse 73-75,Wien,1160,48.21114,16.31069
247971,eni,Grenzackerstrasse 6-8,Wien,1100,48.163473,16.377225
247972,eni,Rautenweg 13,Wien,1220,48.263207,16.461068
247973,eni,Donaustadtstrasse 43,Wien,1220,48.222678,16.44443
247974,eni,Biberhaufenweg 115,Wien,1220,48.202378,16.473838
247976,eni,Bonygasse /Ruckergasse,Wien,1120,48.179079,16.326542
247977,eni,Althanstrasse 14,Wien,1090,48.229354,16.358291
247978,eni,Jägerstrasse 60,Wien,1200,48.235,16.37054
247997,eni,Wiener Strasse 304,Graz,8051,47.098039,15.404107
247997,eni,Wiener Strasse 304,Graz,8051,47.098039,15.404107
248004,eni,Pirching 97,Hofstätten a. d. Raab,8200,47.089452,15.73237
248004,eni,Pirching 97,Hofstätten a. d. Raab,8200,47.089452,15.73237
248005,eni,Gewerbepark Nord Nr. 11,Gralla,8431,46.80548,15.56009
248005,eni,Gewerbepark Nord Nr. 11,Gralla,8431,46.80548,15.56009
248017,eni,Oberegging 54,Bergland,3254,48.158477,15.111832
248017,eni,Oberegging 54,Bergland,3254,48.158477,15.111832
248020,eni,Braitnerstrasse 62a,Baden,2500,48.001929,16.241614
248020,eni,Braitnerstrasse 62a,Baden,2500,48.001929,16.241614
248031,eni,Mitschastrasse 38,Mistelbach,2130,48.564225,16.576073
255985,123tanken.at - Tankstellenbetriebs & Service GmbH,Rotensterngasse 25,Wien,1020,48.2172366,16.3844335
259032,Diskont Tankstelle,"Gewerbestraße 2 (""Am Hofer Parkplatz"")",Traisen,3160,48.049897,15.612339
274360,Müller Tankstellen GesmbH,Bundesstraße 15,St. Konrad,4817,47.9107899,13.90395
277894,Shell Austria,HIRSCHSTETTNERSTRASSE 24,WIEN,1220,48.24412,16.45453
294806,eni,Gersthofer Strasse Nr. 2b,Wien,1180,48.226999,16.326521
294886,eni,Brennerautobahn Ost Tal,Matrei,6143,47.14072,11.44653
297720,AVIA Xpress (Automaten-Tankstelle),Rieder Straße 17,Mettmach,4931,48.172218,13.347336
307172,Shell Austria,GRINZINGERSTRASSE 137,WIEN,1190,48.25463,16.36399
370714,Shell Austria,AM KAISERMUEHLENDAMM 140,WIEN,1220,48.20715,16.44691
384859,Shell Austria,LAAERBERGSTRASSE 84,WIEN,1100,48.16421,16.39104
395309,Shell Austria,DONAUSTADTSTRASSE 37C,WIEN,1220,48.22704,16.44498
402052,Shell Austria,LAINZERSTRASSE 14,WIEN,1130,48.18551,16.29624
408320,"PINK - so pink, so clever",Bahnhofstrasse 26,Aschach an der Donau,4082,48.363754,14.010318
414544,Shell Austria,TRIESTERSTRASSE 6A-8,WIEN,1100,48.1790148559,16.3580035648
422973,Shell Austria,DR.ARTHUR LEMISCHSTRASSE 16,FELDKIRCHEN,9560,46.726883,14.090068
427016,Shell Austria,AM SPORTFELD 4,KITZBUEHEL,6370,47.4446,12.39875
427017,Shell Austria,AUSSTELLUNGSSTRASSE 4,WIEN,1020,48.21777,16.39464
428033,Shell Oberndorf/Sbg,Salzburger Strasse 4,Oberndorf bei Salzburg,5110,47.935624,12.94659
428033,Shell Oberndorf/Sbg,Salzburger Strasse 4,Oberndorf bei Salzburg,5110,47.935624,12.94659
428034,Shell Spittal/Drau ,Zgurner Strasse 2,Spittal an der Drau,9800,46.782823,13.534383
428034,Shell Spittal/Drau ,Zgurner Strasse 2,Spittal an der Drau,9800,46.782823,13.534383
428035,Shell Lannach,Radlpass Strasse 26,Lannach,8502,46.949105,15.337384
428035,Shell Lannach,Radlpass Strasse 26,Lannach,8502,46.949105,15.337384
431256,Shell Austria,HEILIGENSTAEDTERSTR. 60,WIEN,1190,48.24161,16.36138
435627,Shell Austria,MITSCHASTRASSE 29,MISTELBACH,2130,48.56169,16.57694
437497,Shell Austria,GERSTHOFERSTRASSE 2,WIEN,1180,48.229112,16.32895
437498,Shell Austria,HADIKGASSE 128-134,WIEN,1140,48.190443,16.294513
447952,Shell Austria,HUETTELBERGSTRASSE 4,WIEN,1140,48.20271,16.25757
448121,Shell Austria,LINZER STR 2A,WIEN,1150,48.19039,16.32173
449481,Shell Austria,FLORIDSDORFER HAUPTSTR 17,WIEN,1210,48.25439,16.39411
449653,Shell Austria,LEOPOLDAUERSTRASSE 51,WIEN,1210,48.25993,16.41174
449827,Shell Austria,OEVERSEESTRASSE 2B,WIEN,1150,48.20186,16.31767
449829,Shell Austria,ALPENSTRASSE 2,ANIF B.SALZBURG,5081,47.74943,13.06947
450004,Shell Austria,SCHWEFEL 40,DORNBIRN-SCHWEFEL,6850,47.4256,9.7414
450350,Shell Austria,DARINGERGASSE 1A,WIEN,1190,48.24722,16.33481
450523,Shell Austria,PFENNINGGELDG 2/ECKE HERBSTSTRASSE,WIEN,1160,48.20786,16.31328
450524,Shell Austria,WAGRAMERSTRASSE 14,WIEN,1220,48.23367,16.42036
450530,Shell Austria,REICHSSTRASSE 137,FELDKIRCH-LEVIS,6800,47.2468,9.60984
491817,Deine SB Tankstellen,Kirchbach 113,Kirchbach,8082,46.929099,15.664164
544226,Diskont Tankstelle,"Gnaserstraße 26 (""Am Hofer Parkplatz"")",Feldbach,8330,46.953682,15.869513
592851,eni,Marktstraße 19,Großarl,5611,47.2428529,13.2059728
605978,Turmöl Gold,Steinamangerstrasse 8,Pinkafeld,7423,47.3635786,16.1251255
621248,OIL! Tankstelle,Schusterbergweg 84,Innsbruck,6020,47.2769,11.432
621283,OIL! Tankstelle,Himberger Strasse 50,Wien,1100,48.1365,16.3835
621285,OIL! Tankstelle,Laxenburger Strasse 244,Wien,1230,48.1388,16.358
621287,OIL! Tankstelle,Furchgasse 2A,Hohenems,6845,47.3801,9.70549
624870,Turmöl Quick,Weitmoserstr. 1,Bad Hofgastein,5630,47.1571884,13.1072403
650274,"PINK - so pink, so clever",Pummererstraße 22,Linz,4020,48.3070145,14.3245113
650443,avanti - Strasswalchen Salzburger Straße 70,Salzburger Strasse 70,Strasswalchen,5204,47.96971,13.2461
654998,BP,Aiglhofstraße 20,Salzburg,5020,47.8043229,13.0283246
665616,avanti - Rum Siemensstraße 1,Siemensstrasse 1,Rum,6063,47.27753,11.45756
685125,GTS - Günstig Tanken Schmöger ,Körnermarkt 5,Gföhl,3542,48.516035,15.493225
692206,SPRITINN,Rechte Wienzeile 43,Wien,1050,48.1963317,16.3587045
716103,Stöckl ,Hauptstrasse 54,Bernstein,7434,47.4064335,16.260999
750565,Rumpold,Bundesstraße 50,St. Michael,8770,47.350148,15.009137
757987,Rumpold,Grazer Straße 79,Mitterdorf im Mürztal,8662,47.531662,15.510317
789150,WT Telfs,Hans-Liebherr-Strasse 33,Telfs,6410,47.3140345,11.1001827
789150,WT Telfs,Hans-Liebherr-Strasse 33,Telfs,6410,47.3140345,11.1001827
793706,Petschl Tankstelle,Josef-Petschl-Straße 1,Perg,4320,48.25254,14.596074
810034,Diesel Prommegger St. Michael,Gewerbestraße 649,St. Michael,5582,47.0968149,13.6314642
819631,"""M3 TANKSTELLE"" PUCHBERG ",SCHNEEBERG 29,PUCHBERG AM SCHNEEBERG,2734,47.7887601,15.9091111
931254,Turmöl,Altmannsdorferstraße 150,Wien,1230,48.1547657,16.3193503
981384,Diskont Nissan Feichtinger,Eisenbirn 10,Münzkirchen,4792,48.4738875,13.5610313
1038732,ENI,Gesäusestraße,Liezen,8940,47.5593257,14.2532636
1038732,ENI,Gesäusestraße,Liezen,8940,47.5593257,14.2532636
1048950,RAG.ERDGAS.MOBIL,Schwarzmoos 28,Gampern,4851,48.01639,13.57391
1048950,RAG.ERDGAS.MOBIL,Schwarzmoos 28,Gampern,4851,48.01639,13.57391
1048951,RAG.ERDGAS.MOBIL,Krift 51,Kremsmünster,4550,48.021777,14.121975
1048951,RAG.ERDGAS.MOBIL,Krift 51,Kremsmünster,4550,48.021777,14.121975
1059610,ENI,Amraser See 64,Innsbruck,6020,47.2634138,11.4333943
1059610,ENI,Amraser See 64,Innsbruck,6020,47.2634138,11.4333943
1072750,HWK Diesel,Franz-Cervinka-Weg 3,Oberndorf in Tirol,6372,47.4886206,12.3768668
1093770,AVIA Xpress (Automaten-Tankstelle),Hauptstraße 34,Weibern,4675,48.181118,13.698211
1113150,Diskont Tankstelle,"Herrenau 2 (""Hofer-Parkplatz"")",Bürs,6706,47.152981,9.814188
1113701,Gutmann Eni Tankstelle,Stubaitalstrasse 10,Mieders,6142,47.160059,11.368108
1113701,Gutmann Eni Tankstelle,Stubaitalstrasse 10,Mieders,6142,47.160059,11.368108
1128824,Diskont Tankstelle,"Burgenlandstraße /B50 (""Hofer Parkplatz"")",Stoob,7344,47.514537,16.487473
1131667,AWI-Diskont Bedienungstankstelle,Sternwartestraße 23,Wien,1180,48.2295664,16.3462611
1149829,Rekord-Tankstelle,Wirtschaftspark-West 9,Pinkafeld,7423,47.373778,16.092691
1151451,TURMÖL powered by boesch energy,Schoenbrunner Strasse 213,Wien,1120,48.18452,16.33505
1168600,LMEnergy Express,Almteilweg 1,Bürs,6706,47.151467,9.810635
1172639,SB-Tankstelle Zauner,Jagern 18,Enzenkirchen,4761,48.37648,13.63102
1178939,"TurboStopp, Freie Tankstelle",Gerlos 297,Gerlos,6281,47.2286462,12.0479962
1199819,masterDIESEL,Vorarlberger Allee 3,Wien,1230,48.1319793,16.3544422
1221668,eni AUTOMATIC-Tankstelle 0-24h bei Washplex Linz/Industriezeile,Industriezeile 58,Linz,4020,48.307117,14.315913
1248127,Diskont Tankstelle,"Shuttleworthstraße 11 (""Hofer-Parkplatz"")",Wien,1210,48.271488,16.407684
1250795,KMG Klagenfurt Mobil GmbH,Kirchengasse 69,Klagenfurt am Wörthersee,9020,46.6101948,14.318457399999945
1261240,Turmöl,Engerthstrasse 146,Wien,1200,48.233836,16.3910922
1261240,Turmöl,Engerthstrasse 146,Wien,1200,48.233836,16.3910922
1264659,Diskont Tankstelle,"Bundesstraße 6 (""Hofer-Parkplatz"")",Koblach,6842,47.325984,9.629425
1264660,Turmöl Quick,Eichenstraße 2B,Wien,1120,48.1780142,16.3444115
1310359,GENOL - Lagerhaus,Alberner Hafenzufahrtsstraße 17,Wien,1110,48.17277,16.47269
1317406,Turmöl,Wimbergstrasse 27,St.Peter am Wimberg,4171,48.5017483,14.0766343
1338037,Turmöl Quick,Fabrikgasse 29,Graz,8020,47.0591358,15.4265899
1338037,Turmöl Quick,Fabrikgasse 29,Graz,8020,47.0591358,15.4265899
1354660,JET TANKSTELLE,RAUTENWEG 9,WIEN,1220,48.263651,16.459702
1354663,JET TANKSTELLE,NEILREICHGASSE 39,WIEN,1100,48.174287,16.365643
1354667,JET TANKSTELLE,SIMMERINGER HAUPTSTRASSE 275,WIEN,1110,48.159966,16.43266
1354670,JET TANKSTELLE,TRIESTERSTRASSE 292,WIEN,1230,48.131138,16.321654
1354671,avanti - Fügen im Zillertal Zillertalstraße 14,Zillertalstrasse 14,Fuegen im Zillertal,6263,47.35141,11.85149
1354672,JET TANKSTELLE,OBERLAAERSTR. 276,WIEN,1230,48.146913,16.366831
1354673,OMV - Innsbruck Andechsstraße 83,Andechsstrasse 83,Innsbruck,6020,47.26531,11.42629
1354677,avanti - Landeck Innstrasse 38,Innstrasse 38,Landeck,6500,47.14163,10.56352
1354685,JET TANKSTELLE,KARAWANKENWEG 18,VILLACH,9500,46.59817,13.848953
1354702,JET TANKSTELLE,HIRSCHSTETTNERSTRASSE 52,WIEN,1220,48.238087,16.460684
1354711,JET TANKSTELLE,LUSTENAUERSTRASSE 2,GÖTZIS,6840,47.344695,9.656679
1354712,OMV - Frauenhofen Wiener Straße 6,Wiener Strasse 6,Frauenhofen,3580,48.66569,15.63271
1354712,OMV - Frauenhofen Wiener Straße 6,Wiener Strasse 6,Frauenhofen,3580,48.66569,15.63271
1354713,SCHNELL UND GUENSTIG TANKSTELLE,INDUSTRIEPARKSTRASSE 1,MISTELBACH,2130,48.560945,16.576985
1354721,JET TANKSTELLE,LINZER STRASSE 453,WIEN,1140,48.203103,16.244262
1354727,JET TANKSTELLE,KÄRNTNERSTRASSE 88,LIENZ,9900,46.831014,12.783933
1354731,JET TANKSTELLE,GADNERGASSE 6,WIEN,1110,48.16679,16.410194
1354734,avanti - Traisen Mariazeller Straße 38a,Mariazeller Strasse 38a,Traisen,3160,48.04857,15.60983
1354747,JET TANKSTELLE,BUNDESSTRASSE 18,ST JOHANN IM PONGAU,5600,47.350359,13.194386
1354748,JET TANKSTELLE,HERRENAU 1,BUERS,6706,47.152278,9.814175
1354750,JET TANKSTELLE,DONAUFELDER STRASSE 135,WIEN,1210,48.252498,16.426062
1354751,OMV - Schwechat S1 KM 9,S1 KM 9,Schwechat,2320,48.12249,16.4387
1354753,OMV - Wiener Neudorf IZ NÖ Süd Straße 4 Objekt 9,IZ NOe Sued Strasse 4 Objekt 9,Wiener Neudorf,2351,48.0776,16.3233
1354753,OMV - Wiener Neudorf IZ NÖ Süd Straße 4 Objekt 9,IZ NOe Sued Strasse 4 Objekt 9,Wiener Neudorf,2351,48.0776,16.3233
1354760,JET TANKSTELLE,BADSTUBENWEG 90,VILLACH,9500,46.631499,13.824641
1354769,JET TANKSTELLE,SIMMERINGER HAUPTSTRASSE 336,WIEN,1110,48.147379,16.463011
1354778,OMV - Wiener Neustadt Wiener Straße 126,Wiener Strasse 126,Wiener Neustadt,2700,47.84322,16.24631
1354778,OMV - Wiener Neustadt Wiener Straße 126,Wiener Strasse 126,Wiener Neustadt,2700,47.84322,16.24631
1354779,JET TANKSTELLE,HIETZINGER KAI 99,WIEN,1130,48.19022,16.289543
1354782,OMV - Loosdorf Gewerbestraße 8,Gewerbestrasse 8,Loosdorf,3382,48.19,15.409
1354782,OMV - Loosdorf Gewerbestraße 8,Gewerbestrasse 8,Loosdorf,3382,48.19,15.409
1354784,OMV - Oberpullendorf Stoob Süd 6,Stoob Sued 6,Oberpullendorf,7350,47.50957,16.50023
1354784,OMV - Oberpullendorf Stoob Süd 6,Stoob Sued 6,Oberpullendorf,7350,47.50957,16.50023
1354790,JET TANKSTELLE,GEWERBEPARK 12,ELIXHAUSEN,5161,47.871096,13.065989
1354794,JET TANKSTELLE,KETZERGASSE 208,WIEN,1230,48.130709,16.289516
1354817,JET TANKSTELLE,GASTEINER STRASSE 72,BISCHOFSHOFEN,5500,47.406171,13.217781
1354821,JET TANKSTELLE,KAISER FRANZ JOSEF STRASSE 40,HOHENEMS,6845,47.35725,9.68315
1354822,OMV - Eisenstadt Mattersburger Straße 28,Mattersburger Strasse 28,Eisenstadt,7000,47.83317,16.52318
1354822,OMV - Eisenstadt Mattersburger Straße 28,Mattersburger Strasse 28,Eisenstadt,7000,47.83317,16.52318
1354823,JET TANKSTELLE,MÜNCHNER BUNDESSTR. 15,SALZBURG,5020,47.817898,13.018664
1354826,OMV - Sankt Pölten Mariazeller Straße 95,Mariazeller Strasse 95,Sankt Poelten,3100,48.18769,15.61753
1354826,OMV - Sankt Pölten Mariazeller Straße 95,Mariazeller Strasse 95,Sankt Poelten,3100,48.18769,15.61753
1354828,JET TANKSTELLE,WEGSCHEIDGASSE 18,KITZBÜHEL,6370,47.450067,12.391094
1354830,JET TANKSTELLE,WIENER BUNDESSTRASSE 15,HALLWANG,5300,47.83246,13.086047
1354832,JET TANKSTELLE,BUNDESSTRASSE 13,ST JOHANN IM PONGAU,5600,47.343479,13.191715
1354838,SCHNELL UND GUENSTIG TANKSTELLE,BUNDESSTRASSE 34,RUM,6063,47.277562,11.444639
1354846,JET TANKSTELLE,REICHSSTRASSE 133 A,FELDKIRCH,6800,47.247387,9.610381
1354849,JET TANKSTELLE,BREITENFURTERSTRASSE 164,WIEN,1230,48.153886,16.301339
1354851,OMV - Lustenau Hagstraße 27,Hagstrasse 27,Lustenau,6890,47.44937,9.66475
1354851,OMV - Lustenau Hagstraße 27,Hagstrasse 27,Lustenau,6890,47.44937,9.66475
1354853,OMV - Wolfurt Dornbirner Straße 22,Dornbirner Strasse 22,Wolfurt,6922,47.4541,9.75495
1354855,OMV - Frastanz Feldkircher Straße 47,Feldkircher Strasse 47,Frastanz,6820,47.22452,9.61744
1354855,OMV - Frastanz Feldkircher Straße 47,Feldkircher Strasse 47,Frastanz,6820,47.22452,9.61744
1354857,OMV - Dornbirn Schwefel 53,Schwefel 53,Dornbirn,6850,47.42804,9.73995
1354863,OMV - Bregenz Arlbergstraße 135,Arlbergstrasse 135,Bregenz,6900,47.48778,9.73324
1354863,OMV - Bregenz Arlbergstraße 135,Arlbergstrasse 135,Bregenz,6900,47.48778,9.73324
1354881,JET TANKSTELLE,EUROPASTRASSE 8,HALLEIN,5400,47.684607,13.103615
1354889,OMV - Wien Shuttleworthstraße 10,Shuttleworthstrasse 10,Wien,1210,48.2705,16.41214
1354891,OMV - Wien Adalbert Stifter-Straße 67,Adalbert Stifter-Strasse 67,Wien,1200,48.24309,16.37535
1354891,OMV - Wien Adalbert Stifter-Straße 67,Adalbert Stifter-Strasse 67,Wien,1200,48.24309,16.37535
1354892,JET TANKSTELLE,LAXENBURGER STRASSE 248,WIEN,1230,48.135681,16.356244
1354895,avanti - Wien Nordbahnstraße 1,Nordbahnstrasse 1,Wien,1020,48.22912,16.38852
1354901,avanti - Wien Gaussplatz 1,Gaussplatz 1,Wien,1020,48.22588,16.3708
1354902,JET TANKSTELLE,SCHWEFEL 44 A,DORNBIRN,6850,47.426673,9.741176
1354907,OMV - Wien Wientalstraße/Auhofbrücke 40,Wientalstrasse/Auhofbruecke 40,Wien,1140,48.20186,16.23616
1354908,OMV - Wien Gunoldstraße 7 / Muthgasse 1,Gunoldstrasse 7 / Muthgasse 1 ,Wien,1190,48.24531,16.36578
1354910,OMV - Wien Hütteldorfer Straße 216b,Huetteldorfer Strasse 216b,Wien,1140,48.19788,16.27994
1354911,JET TANKSTELLE,ERNSTBRUNNER STRASSE 5,MISTELBACH,2130,48.560874,16.561675
1354912,OMV - Wien Breitenleer Straße West B302 108,Breitenleer Strasse West B302 108,Wien,1220,48.25108,16.47035
1354914,OMV - Wien Breitenleer Straße Ost B302 112,Breitenleer Strasse Ost B302 112,Wien,1220,48.25141,16.47211
1354914,OMV - Wien Breitenleer Straße Ost B302 112,Breitenleer Strasse Ost B302 112,Wien,1220,48.25141,16.47211
1354916,OMV - Wien Hirschstettner Straße 34,Hirschstettner Strasse 34,Wien,1220,48.24285,16.45645
1354916,OMV - Wien Hirschstettner Straße 34,Hirschstettner Strasse 34,Wien,1220,48.24285,16.45645
1354918,OMV - Wien Brünner Straße 172,Bruenner Strasse 172,Wien,1210,48.28114,16.41181
1354918,OMV - Wien Brünner Straße 172,Bruenner Strasse 172,Wien,1210,48.28114,16.41181
1354920,OMV - Wien Brunner Straße 77-79,Brunner Strasse 77-79,Wien,1230,48.13342,16.29849
1354920,OMV - Wien Brunner Straße 77-79,Brunner Strasse 77-79,Wien,1230,48.13342,16.29849
1354922,"OMV - Wien 7. Haidequerstraße 2 KM 1,5","7. Haidequerstrasse 2 KM 1,5",Wien,1110,48.18187,16.44451
1354924,OMV - Wien Gablenzgasse 109,Gablenzgasse 109,Wien,1150,48.20685,16.31374
1354926,OMV - Wien Etrichstraße 42,Etrichstrasse 42,Wien,1110,48.15133,16.4632
1354929,OMV - Wien Laaer Berg-Straße 240,Laaer Berg-Strasse 240,Wien,1100,48.14818,16.39664
1354929,OMV - Wien Laaer Berg-Straße 240,Laaer Berg-Strasse 240,Wien,1100,48.14818,16.39664
1354930,JET TANKSTELLE,LEOPOLDAUERSTRASSE 40,WIEN,1210,48.25895,16.41139
1354933,OMV - Wien Leberstraße 112-114,Leberstrasse 112-114,Wien,1110,48.17,16.40953
1354935,avanti - Wien Simmeringer Hauptstraße 489,Simmeringer Hauptstrasse 489,Wien,1110,48.14844,16.46228
1354937,OMV - Wien Groß-Enzersdorfer Straße 24-26,Gross-Enzersdorfer Strasse 24-26,Wien,1220,48.21686,16.49345
1354937,OMV - Wien Groß-Enzersdorfer Straße 24-26,Gross-Enzersdorfer Strasse 24-26,Wien,1220,48.21686,16.49345
1354939,avanti - Wien Prager Straße 270-272,Prager Strasse 270-272,Wien,1210,48.28664,16.38404
1354941,avanti - Wien Edelsinnstraße 16,Edelsinnstrasse 16,Wien,1120,48.1724,16.31949
1354942,JET TANKSTELLE,JEDLETZBERGERSTRASSE 18,WIEN,1110,48.168847,16.459643
1354944,OMV - Wien Triester Straße 38,Triester Strasse 38,Wien,1100,48.1774,16.35653
1354946,avanti - Wien Brünner Straße 420,Bruenner Strasse 420,Wien,1210,48.31144,16.43012
1354948,JET TANKSTELLE,WALLENMAHD 22,DORNBIRN,6850,47.39649,9.731134
1354949,avanti - Wien Eichenstraße 3a,Eichenstrasse 3a,Wien,1120,48.17824,16.34598
1354951,avanti - Wien Esslinger Hauptstraße 32,Esslinger Hauptstrasse 32,Wien,1220,48.2145,16.51461
1354953,avanti - Wien Guldengasse 13,Guldengasse 13,Wien,1140,48.1953,16.28135
1354954,JET TANKSTELLE,RAXSTRASSE 5,WIEN,1100,48.165249,16.365198
1354955,avanti - Wien Heiligenstädter Straße 196,Heiligenstaedter Strasse 196,Wien,1190,48.28511,16.34549
1354957,avanti - Wien Neuhaufenstraße 148,Neuhaufenstrasse 148,Wien,1220,48.21808,16.44649
1355334,Diskont Tankstelle,"Badstubenweg 80 (""Hofer-Parkplatz"")",Villach,9500,46.631153,13.8226038
1374746,Turmöl Quick,Salzachtalstraße 16,Hallein,5400,47.6822599,13.1004595
1463026,Diskont Tankstelle,"35. Straße 2 (""Hofer Parkplatz"") ",Kematen an der Ybbs,3331,48.037782,14.778013
1467380,avanti - Dornbirn Lustenauer Straße 24,Lustenauer Strasse 24,Dornbirn,6850,47.40698,9.73476
1467404,D.Gertl Tankstelle GmbH,x,Radfeld,6241,47.4517224,11.9360568
1467446,Turmöl,Bennoplatz 4,Wien,1080,48.2120591,16.3420486
1467506,Eni Laakirchen,Johannes Humer-Straße,Laakirchen,4663,48.005425,13.845045
1467527,Genol-Lagerhaustankstelle - Oberpullendorf,Eisenstädter Strasse 24,OBERPULLENDORF,7350,47.4991041,16.5123905
1467528,GENOL-Lagerhaustankstelle - Horitschon,Hauptstrasse 99,HORITSCHON,7312,47.591404,16.539313
1467532,GENOL-Lagerhaustankstelle - Drassmarkt,Herrschaftsgarten,DRASSMARKT,7372,47.508672,16.619671
1467606,JET TANKSTELLE,GEWERBESTRASSE 19,ALKOVEN,4072,48.28957,14.130639
1467627,AVIA-Tankstelle Stock,Vorderlanersbach 5,Tux,6293,47.160297,11.7587452
1467697,Petschl / Riegler Tankstelle,Neudorf 36,Pabneukirchen,4363,48.331486,14.832237
1468126,BP,Breitenfurterstr. 112,Wien,1120,48.160527,16.309543
1468186,TS Lind Wings,Rennsteinerstraße 34,Villach,9500,46.6237261,13.8435376
1468726, AVIA Xpress (Automaten-Tankstelle),10.-Oktober-Straße 29,Feldkirchen in Kärnten,9560,46.722217,14.098879
1468800,Welog - Landespartner des Burgenlands,Obere Hauptstraße 230,St. Michael im Burgenland,7535,47.136327,16.272085
1468806,DISKONT TANKSTELLE WIEN 22,Erzherzog-Karl-Straße 12,Wien,1220,48.238192,16.432431
1469126,Turmöl Quick,Breitenfurterstraße 473,Wien,1230,48.137832,16.257546
1469406,JET TANKSTELLE,PRAGERSTRASSE 138,WIEN,1210,48.278186,16.388013
1469506,Turmöl Quick,Hardtmuthgasse 51,Wien,1100,48.170174,16.370448
1469546,avanti - Wien Jedletzbergerstraße 7,Jedletzbergerstrasse 7,Wien,1110,48.17054,16.45797
1469646,Turmöl,Hollergasse 7,Wien,1150,48.185346,16.324959
1469766,EVM - Biomethan Tankstelle,Energiestraße 9,Margarethen am Moos,2433,48.047635,16.605493
1469766,EVM - Biomethan Tankstelle,Energiestraße 9,Margarethen am Moos,2433,48.047635,16.605493
1469806,SHELL,Güssinger Str. 384,St. Michael,7535,47.119516,16.274524
1469807,Turmöl Tankstelle,Obere Hauptstraße 174,Neuberg,7537,47.184775,16.248481
1469987,Gerhard Prugger Maltatal Diskont,Malta 175,Malta,9854,46.949817,13.509007
1470006,Plöckinger KG,"Staufstraße, 3",Haibach ob der Donau,4083,48.40810469142028,13.91798805936413
1470086,Rumpold,Petersplatz 5,St. Peter am Ottersbach,8093,46.79924,15.759666
1470126,M3 Drautank,Karawankenweg 17,Villach,9500,46.597852,13.850062
1470206,JET TANKSTELLE,ST. POELTNER STRASSE 1 C,WILHELMSBURG,3150,48.11764,15.608591
1470267,Diskont Tankstelle,"Donaufelderstraße 137 (""Hofer-Parkplatz"")",Wien,1210,48.252459,16.427015
1470867,ENI Stumm ,Gewerbegebiet 6,Stumm ,6275,47.29034628764583,11.88055119320892
1470867,ENI Stumm ,Gewerbegebiet 6,Stumm ,6275,47.29034628764583,11.88055119320892
1471227,Tankstelle Gewerbepark ,Gewerbepark 5,Großarl,5611,47.22868096423599,13.198833790507829
1471267,Tankshop Sabotnig,Plescherken 62 a,Keutschach/See,9074,46.58772169917432,14.141038821702509
1471508,Eni Hartberg,Ressevarstraße 50,Hartberg,8230,47.2825361,15.9754875
1471848,Glocknertankstelle,"Pockhorn, 29",Heiligenblut,9844,47.02351163016087,12.862333834713704
1471987,Autohaus Resch GmbH,"Wolfgangseestraße, 2",Strobl,5350,47.713120721929556,13.486561730101547
1471987,Autohaus Resch GmbH,"Wolfgangseestraße, 2",Strobl,5350,47.71312072192956,13.486561730101547
1472008,FS Tankstelle,Donaufelderstr.128,Wien,1210,48.25236,16.42563
1472047,Tankstelle 2 Löwen,Igo-Etrich Straße,Kapfenberg,8605,47.466246623852925,15.337758981543928
1472147,Turmöl Quick,Altmannsdorfer Straße 96,Wien,1120,48.1618,16.31747
1472247,Gutmann Shell,Au 171,See,6553,47.0826756,10.4641687
1472348,Lagerhaus Tankstelle Sillian,Südtirolerstraße 1 f,Sillian,9920,46.745791,12.408574
1472407,Diskont Tankstelle,"Kärntner Straße 27 (""Hofer-Parkplatz"")",Villach,9500,46.59742,13.83869
1472647,Turmöl Quick,Drautal Bundesstraße 4,Lienz,9990,46.82868,12.80849
1472687,JET TANKSTELLE,ERMELINDE-KOCH-STRASSE 2,FELDKIRCHEN,9560,46.73206,14.09377
1472727,Rumpold,Riesstraße 422,Kainbach bei Graz,8010,47.100445,15.557949
1472767,Rumpold,Hauptstraße 2,Eggersdorf bei Graz,8063,47.12407,15.61067
1473128,Diskont Tankstelle,"Wien Breitenfurter Strasse 261 (""Hofer-Parkplatz"")",Wien,1230,48.1506803,16.3016662
1473168,Rumpold,Völkermarkter Straße 269,Klagenfurt,9020,46.63015,14.35627
1473468,Diskont Tankstelle,"Garnei 208 (""Hofer-Parkplatz"")",Kuchl,5431,47.638523,13.137367
1473491,Turmöl,Pragerstraße 155,Wien,1210,48.276582,16.388104
1473508,Diskont Tankstelle,"Alpenstrasse 102 (""Hofer-Parkplatz"")",Anif,5081,47.7382713,13.0508116
1473551,Turmöl,Krottenbachstraße 233,Wien,1190,48.2456615,16.3164295
1473588,Diskont Tankstelle,"Wiener Bundesstrasse 3 (""Am Hofer Parkplatz"")",Hallwang,5300,47.830196,13.083057
1473750,BP,Gewerbegebiet 1,Heiterwang,6611,47.435845,10.767215
1473788,Turmöl Quick,Konrad Lesiak Platz 6,St. Gilgen,5340,47.76441,13.36409
1473828,Turmöl,Grenzackerstraße 2-4,Wien,1100,48.162894,16.379636
1473829,Turmöl,Laaer Bergstraße 207,Wien,1100,48.15160789,16.3968349
1473838,Strohmeier Tankstelle,Am Hundsturm 2-4,Wien,1050,48.187799,16.34712
1473848,Diskont Tankstelle,"Ernstbrunnerstraße 2 (""Hofer Parkplatz"")",Mistelbach,2130,48.5609853,16.5597662
1473888,Diskont Tankstelle,"Königstetter Strasse 148 (""Hofer-Parkplatz"")",Tulln,3430,48.3193484,16.0829742
1473929,Turmöl Judenburg,Burggasse 42,Judenburg,8750,47.16888851208108,14.65430780513867
1473929,Turmöl Judenburg,Burggasse 42,Judenburg,8750,47.16888851208108,14.65430780513867
1473948,Diskont Tankstelle,"Barnabas-Fink-Strasse 1 (""Hofer-Parkplatz"")",Hohenems,6845,47.366974,9.670367
